TIANMU-1 21             
1 58662U 23208C   26158.46929396  .00010005  00000+0  29769-3 0  9993
2 58662  97.4493 277.9857 0006756   3.2769 356.8517 15.34905091136070
TIANMU-1 22             
1 58663U 23208D   26158.46492155  .00008539  00000+0  28829-3 0  9997
2 58663  97.4488 274.6612 0004124  36.4619 323.6902 15.30922773135843
TIANMU-1 15             
1 58700U 24004A   26158.53110894  .00006429  00000+0  24581-3 0  9996
2 58700  97.4674 344.7204 0007644  34.8376 325.3361 15.26924066134300
TIANMU-1 16             
1 58701U 24004B   26158.71524057  .00006321  00000+0  24375-3 0  9999
2 58701  97.4621 344.1521 0006733  38.8168 321.3553 15.26652086134332
TIANMU-1 17             
1 58702U 24004C   26158.50405470  .00006367  00000+0  24554-3 0  9993
2 58702  97.4648 344.4226 0006399  44.8206 315.3549 15.26649629134297
TIANMU-1 18             
1 58703U 24004D   26158.54761279  .00006178  00000+0  23655-3 0  9991
2 58703  97.4667 344.7154 0004917  44.2771 315.8860 15.26908624134303
INSAT-3DS               
1 58990U 24033A   26158.43318406 -.00000142  00000+0  00000+0 0  9990
2 58990   0.0052 254.8611 0001320 177.9700  61.0290  1.00273420 46977
METEOR-M2 4             
1 59051U 24039A   26158.54657052  .00000028  00000+0  32323-4 0  9990
2 59051  98.7012 117.9660 0006717 188.7129 171.3933 14.22428588117893
GOES 19                 
1 60133U 24119A   26158.40200846 -.00000234  00000+0  00000+0 0  9994
2 60133   0.0451 132.2728 0000650  17.6660 175.3988  1.00270283  6861
MTG-S1                  
1 64723U 25143A   26158.34489183 -.00000018  00000+0  00000+0 0  9997
2 64723   0.6120 336.7382 0001081  32.6019   7.0952  1.00271643  3321
METOP-SGA1              
1 65159U 25172A   26158.42527286  .00000054  00000+0  44315-4 0  9990
2 65159  98.6647 218.3309 0000957  87.2374 272.8913 14.21508265 42402
FENGYUN 3H              
1 65815U 25219A   26158.10531419  .00000065  00000+0  50878-4 0  9992
2 65815  98.6765  99.0706 0001654  84.8921 275.2444 14.19918688 35952
