OBJECT_NAME,OBJECT_ID,EPOCH,MEAN_MOTION,ECCENTRICITY,INCLINATION,RA_OF_ASC_NODE,ARG_OF_PERICENTER,MEAN_ANOMALY,EPHEMERIS_TYPE,CLASSIFICATION_TYPE,NORAD_CAT_ID,ELEMENT_SET_NO,REV_AT_EPOCH,BSTAR,MEAN_MOTION_DOT,MEAN_MOTION_DDOT
TIANMU-1 21,2023-208C,2026-06-07T11:15:46.998144,15.34905091,.0006756,97.4493,277.9857,3.2769,356.8517,0,U,58662,999,13607,.29769E-3,.10005E-3,0
TIANMU-1 22,2023-208D,2026-06-07T11:09:29.221920,15.30922773,.0004124,97.4488,274.6612,36.4619,323.6902,0,U,58663,999,13584,.28829E-3,.8539E-4,0
TIANMU-1 15,2024-004A,2026-06-07T12:44:47.812416,15.26924066,.0007644,97.4674,344.7204,34.8376,325.3361,0,U,58700,999,13430,.24581E-3,.6429E-4,0
TIANMU-1 16,2024-004B,2026-06-07T17:09:56.785248,15.26652086,.0006733,97.4621,344.1521,38.8168,321.3553,0,U,58701,999,13433,.24375E-3,.6321E-4,0
TIANMU-1 17,2024-004C,2026-06-07T12:05:50.326080,15.26649629,.0006399,97.4648,344.4226,44.8206,315.3549,0,U,58702,999,13429,.24554E-3,.6367E-4,0
TIANMU-1 18,2024-004D,2026-06-07T13:08:33.745056,15.26908624,.0004917,97.4667,344.7154,44.2771,315.8860,0,U,58703,999,13430,.23655E-3,.6178E-4,0
INSAT-3DS,2024-033A,2026-06-07T10:23:47.102784,1.00273420,.000132,0.0052,254.8611,177.9700,61.0290,0,U,58990,999,4697,0,-.142E-5,0
METEOR-M2 4,2024-039A,2026-06-07T13:07:03.692928,14.22428588,.0006717,98.7012,117.9660,188.7129,171.3933,0,U,59051,999,11789,.32323E-4,.28E-6,0
GOES 19,2024-119A,2026-06-07T09:38:53.530944,1.00270283,.000065,0.0451,132.2728,17.6660,175.3988,0,U,60133,999,686,0,-.234E-5,0
MTG-S1,2025-143A,2026-06-07T08:16:38.654112,1.00271643,.0001081,0.6120,336.7382,32.6019,7.0952,0,U,64723,999,332,0,-.18E-6,0
METOP-SGA1,2025-172A,2026-06-07T10:12:23.575104,14.21508265,.0000957,98.6647,218.3309,87.2374,272.8913,0,U,65159,999,4240,.44315E-4,.54E-6,0
FENGYUN 3H,2025-219A,2026-06-07T02:31:39.146016,14.19918688,.0001654,98.6765,99.0706,84.8921,275.2444,0,U,65815,999,3595,.50878E-4,.65E-6,0
